P/2015 T3 (PANSTARRS),e,13.0937,120.5019,178.6330,4.326181,0.1095335,0.50818108,359.9227,12/21.0/2014,2000,g 14.0,4.0
# From MPC102953
C/2015 T4 (PANSTARRS),e,87.9624,251.7994,270.0566,80.53338,0.0013638,0.97148065,0.0000,06/17.5986/2016,2000,g 11.0,4.0
# From MPC102097
C/2015 T5 (Sheppard-Tholen),e,11.0490,311.0814,61.7910,28.05101,0.0066341,0.66730667,9.5208,12/27.0/2019,2000,g  7.5,4.0
# From MPC102953
P/2015 TO19 (Lemmon-PANSTARRS),e,6.4993,321.6425,89.2121,4.557916,0.1012872,0.35773028,140.9357,12/27.0/2019,2000,g 14.0,4.0
# From MPC110080
P/2015 TP200 (LINEAR),e,8.7729,6.9799,82.7362,7.283814,0.0501379,0.53493948,57.9311,12/27.0/2019,2000,g 11.0,4.0
# From MPC101097
C/2015 TQ209 (LINEAR),e,11.3107,223.4321,282.1067,718.9806,0.0000511,0.99803190,0.0000,08/26.5093/2016,2000,g 10.5,4.0
# From MPC115881
C/2015 V1 (PANSTARRS),e,139.2234,197.1871,179.6173,5276,0.0000026,0.99919112,0.0000,12/17.4072/2017,2000,g  6.5,4.0
# From MPC112390
C/2015 V2 (Johnson),h,06/12.2235/2017,49.8737,69.8544,164.9718,1.001830,1.640554,2000,5.0,4.0
# From MPC102953
C/2015 V3 (PANSTARRS),e,86.2390,2.2673,0.7090,627.4428,0.0000627,0.99325613,0.0000,11/24.0088/2015,2000,g  9.0,4.0
# From MPC104791
C/2015 V4 (PANSTARRS),e,60.7607,179.9111,307.0550,18.51121,0.0123752,0.70483704,15.0368,12/27.0/2019,2000,g  8.5,4.0
# From MPC115881
C/2015 VL62 (Lemmon-Yeung-PANSTARRS),h,08/28.1167/2017,165.8151,95.0894,128.7221,1.001187,2.713578,2000,8.0,4.0
# From MPC102098
C/2015 WZ (PANSTARRS),e,134.5600,40.1359,66.6531,146.4912,0.0005559,0.99059900,0.0000,04/14.1125/2016,2000,g 15.0,4.0
# From MPC109142
C/2015 W1 (Gibbs),h,05/15.6252/2016,87.3713,114.3161,48.1968,1.000220,2.240696,2000,13.0,4.0
# From MPC101098
P/2015 W2 (Catalina),e,11.6069,294.2518,117.5760,7.302140,0.0499492,0.63330635,77.3679,12/27.0/2019,2000,g 13.0,4.0
# From MPC101098
P/2015 X1 (PANSTARRS),e,12.1520,161.7757,218.9953,3.630471,0.1424819,0.41892498,219.5617,12/27.0/2019,2000,g 16.0,4.0
# From MPC118840
C/2015 XY1 (Lemmon),h,04/28.7792/2018,148.8556,281.6254,196.2886,1.004011,7.926283,2000,5.5,4.0
# From MPC100281
C/2015 X2 (Catalina),e,72.1053,101.1011,42.3726,15.83987,0.0156342,0.87839706,22.9632,12/27.0/2019,2000,g 16.0,4.0
# From MPC 97498
P/2015 X3 (PANSTARRS),e,24.3823,77.3344,306.6721,5.012349,0.0878298,0.43811301,140.7831,12/27.0/2019,2000,g 15.0,4.0
# From MPC109142
C/2015 X4 (Elenin),e,29.5006,262.6222,176.2776,17.97265,0.0129356,0.81119834,19.6044,12/27.0/2019,2000,g 10.0,4.0
# From MPC118840
C/2015 X5 (PANSTARRS),h,12/30.2934/2017,124.3076,122.3410,27.7108,1.003002,6.799943,2000,7.5,4.0
# From MPC115881
P/2015 X6 (PANSTARRS),e,4.5648,106.9472,329.8995,2.752399,0.2158425,0.17229526,296.2740,12/27.0/2019,2000,g 16.0,4.0
# From MPC109143
C/2015 X7 (ATLAS),h,07/29.6193/2016,57.5629,139.9070,348.4665,1.000347,3.685363,2000,9.0,4.0
# From MPC107048
C/2015 X8 (NEOWISE),e,155.2178,191.1481,20.4318,19.76633,0.0112154,0.93996359,17.1025,12/27.0/2019,2000,g 16.0,4.0
# From MPC109143
C/2015 Y1 (LINEAR),e,71.1764,135.8109,24.6975,257.4104,0.0002387,0.99022424,0.0000,05/14.4027/2016,2000,g 12.0,4.0
# From MPC105543
C/2015 YG1 (NEOWISE),e,57.2723,350.5188,102.5320,17.01487,0.0140430,0.87854324,21.7837,12/27.0/2019,2000,g 13.0,4.0
# From MPC118840
C/2016 A1 (PANSTARRS),h,11/23.0904/2017,121.2044,128.1992,10.2960,1.002058,5.326066,2000,6.0,4.0
# From MPC100282
P/2016 A2 (Christensen),e,26.4061,291.6164,141.6574,4.748225,0.0952593,0.27154564,157.0088,12/27.0/2019,2000,g 11.5,4.0
# From MPC115881
P/2016 A3 (PANSTARRS),e,8.5144,187.3582,340.6850,7.886220,0.0445042,0.38840587,43.2558,12/27.0/2019,2000,g 10.0,4.0
# From MPC109143
C/2016 A5 (PANSTARRS),e,40.2397,136.1641,321.5535,676.6516,0.0000560,0.99564741,0.0000,06/26.8558/2015,2000,g 13.5,4.0
# From MPC109143
C/2016 A6 (PANSTARRS),e,120.9356,300.3643,141.0827,207.5708,0.0003296,0.98840216,0.0000,11/06.2772/2015,2000,g 15.0,4.0
# From MPC102098
P/2016 A7 (PANSTARRS),e,16.6307,221.4734,352.6256,5.030002,0.0873679,0.56580471,122.3650,12/27.0/2019,2000,g 16.0,4.0
# From MPC106345
C/2016 A8 (LINEAR),e,148.2431,111.3379,130.3537,34.28176,0.0049103,0.94502981,5.9627,12/27.0/2019,2000,g 12.0,4.0
# From MPC107048
C/2016 B1 (NEOWISE),e,50.4698,231.9697,8.6602,439.5245,0.0001070,0.99269233,0.0000,12/04.8419/2016,2000,g  9.5,4.0
# From MPC109143
P/2016 BA14 (PANSTARRS),e,18.8986,180.5380,351.9124,3.023933,0.1874329,0.66531131,259.1023,12/27.0/2019,2000,g 21.0,4.0
# From MPC110494
C/2016 C1 (PANSTARRS),h,02/19.4056/2016,56.2101,181.7964,328.7860,1.002769,8.467194,2000,5.5,4.0
# From MPC101098
C/2016 C2 (NEOWISE),e,38.1004,24.4207,214.5246,65.85816,0.0018441,0.97623676,0.0000,04/19.6444/2016,2000,g 16.0,4.0
# From MPC110494
C/2016 E1 (PANSTARRS),h,06/03.8810/2017,131.8923,233.0523,47.4498,1.005262,8.179611,2000,6.5,4.0
# From MPC 99821
C/2016 E2 (Kowalski),e,135.9169,186.8094,321.9068,139.3378,0.0005992,0.99227462,0.0000,02/06.6813/2016,2000,g 20.0,4.0
# From MPC102098
P/2016 G1 (PANSTARRS),e,10.9690,204.0596,111.2981,2.582329,0.2375126,0.21087481,252.7623,12/27.0/2019,2000,g 14.0,4.0
# From MPEC 2017-D91
P/2016 J1-A (PANSTARRS),e,14.3249,199.8356,46.8435,3.174332,0.1742711,0.22823338,223.0047,12/27.0/2019,2000,g 16.5,4.0
# From MPEC 2017-A77
P/2016 J1-B (PANSTARRS),e,14.3277,199.8404,46.7347,3.173962,0.1743016,0.22808462,223.1184,12/27.0/2019,2000,g 17.0,4.0
# From MPC101099
C/2016 J2 (Denneau),e,130.3408,186.3254,318.6137,622.0038,0.0000635,0.99755428,0.0000,04/12.0192/2016,2000,g 17.0,4.0
# From MPC102099
C/2016 KA (Catalina),e,104.6749,317.5130,63.1811,4691,0.0000031,0.99884764,0.0000,02/02.0154/2016,2000,g  8.5,4.0
# From MPC104792
C/2016 K1 (LINEAR),e,90.9049,325.6379,18.2647,13123,0.0000007,0.99982527,0.0000,07/13.2593/2016,2000,g 13.0,4.0
# From MPC118840
C/2016 M1 (PANSTARRS),e,91.0007,92.2027,209.8582,3087,0.0000057,0.99928362,0.0000,08/10.2455/2018,2000,g  5.0,4.0
# From MPC115881
C/2016 N4 (MASTER),e,72.5820,354.0071,55.9416,2395,0.0000084,0.99866458,0.0000,09/16.4620/2017,2000,g  8.5,4.0
# From MPC118092
C/2016 N6 (PANSTARRS),e,105.8403,298.9853,162.7810,1930,0.0000116,0.99861721,0.0000,07/18.1475/2018,2000,g  7.0,4.0
# From MPC102099
P/2016 P1 (PANSTARRS),e,24.4530,319.5659,270.0329,3.195126,0.1725727,0.28941577,268.3612,12/27.0/2019,2000,g 15.0,4.0
# From MPC102099
C/2016 P4 (PANSTARRS),e,29.8821,320.7450,356.1276,387.1079,0.0001294,0.98478074,0.0000,10/17.6905/2016,2000,g 10.5,4.0
# From MPC118093
C/2016 Q2 (PANSTARRS),e,109.3906,322.3012,84.4792,11021,0.0000009,0.99935731,0.0000,05/11.2914/2021,2000,g  6.0,4.0
# From MPC102955
C/2016 Q4 (Kowalski),e,7.2577,271.2842,99.3877,16.88123,0.0142101,0.58027895,9.9400,12/27.0/2019,2000,g  7.0,4.0
# From MPC117069
C/2016 R2 (PANSTARRS),e,58.2247,80.5696,33.1914,593.0079,0.0000683,0.99561050,0.0000,05/09.4516/2018,2000,g  7.0,4.0
# From MPC102099
C/2016 R3 (Borisov),e,53.0445,78.6414,118.1855,200.3842,0.0003475,0.99775011,0.0000,10/10.6218/2016,2000,g 18.0,4.0
# From MPC109144
P/2016 R4 (Gibbs),e,10.8669,168.2930,173.9910,5.331826,0.0800553,0.47581423,100.3949,12/27.0/2019,2000,g 12.5,4.0
# From MPC105543
P/2016 S1 (PANSTARRS),e,94.6469,227.5158,273.2674,8.280864,0.0413610,0.71029271,42.0036,12/27.0/2019,2000,g 12.0,4.0
# From MPC105238
C/2016 T1 (Matheny),e,129.8453,56.2665,137.3737,123.0996,0.0007216,0.98129735,0.0000,02/01.3030/2017,2000,g 14.5,4.0
# From MPC107685
C/2016 T2 (Matheny),e,81.3542,339.1381,92.2593,99.19575,0.0009976,0.98077110,0.0000,12/28.9724/2016,2000,g 14.5,4.0
# From MPC110082
C/2016 T3 (PANSTARRS),e,22.6771,271.7424,194.6932,135.2288,0.0006268,0.98039799,0.0000,09/06.7056/2017,2000,g 10.5,4.0
# From MPC103847
C/2016 U1 (NEOWISE),h,01/14.0382/2017,46.4122,61.4464,162.8284,1.000391,0.321272,2000,17.0,4.0
# From MPC106345
C/2016 VZ18 (PANSTARRS),e,24.0127,98.9253,36.3988,173.9583,0.0004296,0.99475506,0.0000,03/06.6170/2017,2000,g 19.5,4.0
# From MPC106345
P/2016 WM48 (Lemmon),e,117.4241,59.9018,36.0990,8.173728,0.0421768,0.78423207,43.6733,12/27.0/2019,2000,g 15.0,4.0
# From MPC118840
C/2016 X1 (Lemmon),e,26.4551,256.4239,224.5360,1486,0.0000172,0.99490994,0.0000,04/29.3643/2019,2000,g  6.0,4.0
# From MPC108594
C/2017 A1 (PANSTARRS),e,49.7942,121.0405,2.0735,77.67134,0.0014398,0.97048712,0.0000,05/16.6325/2017,2000,g 13.0,4.0
# From MPC108594
C/2017 A3 (Elenin),e,98.5373,97.9078,304.0648,43.49654,0.0034358,0.91146258,3.6429,12/27.0/2019,2000,g  9.5,4.0
# From MPC114598
C/2017 AB5 (PANSTARRS),e,32.4331,42.6672,78.3662,3131,0.0000056,0.99705696,0.0000,02/16.6952/2018,2000,g  5.5,4.0
# From MPC118840
C/2017 B3 (LINEAR),h,02/02.6132/2019,54.1771,2.1787,284.7714,1.002004,3.921549,2000,6.0,4.0
# From MPC103847
P/2017 B4 (PANSTARRS),e,20.0584,121.4578,11.0197,4.410520,0.1064068,0.36495152,359.9130,01/05.0/2017,2000,g 14.5,4.0
# From MPC104793
C/2017 C1 (NEOWISE),e,65.7400,357.4790,110.1403,20.63171,0.0105172,0.92723664,11.2795,12/27.0/2019,2000,g 18.0,4.0
# From MPC107685
C/2017 C2 (PANSTARRS),e,118.5898,249.8159,138.6754,97.66218,0.0010212,0.97515811,0.0000,01/21.6212/2017,2000,g 14.0,4.0
# From MPC104793
P/2017 D1 (Fuls),e,20.7622,82.1759,8.1135,4.829262,0.0928716,0.43706010,118.7430,12/27.0/2019,2000,g 14.0,4.0
# From MPC112391
C/2017 D2 (Barros),e,31.2565,330.9909,334.4331,2669,0.0000071,0.99906828,0.0000,07/14.7735/2017,2000,g 11.0,4.0
# From MPC114598
C/2017 D3 (ATLAS),h,04/27.1709/2017,125.5740,186.6419,340.8440,1.001885,4.973901,2000,8.0,4.0
# From MPC110495
P/2017 D4 (PANSTARRS),e,10.5302,264.9372,212.3304,7.571332,0.0473092,0.62894603,57.0746,12/27.0/2019,2000,g 13.0,4.0
# From MPC104794
C/2017 D5 (PANSTARRS),e,131.0599,92.7366,287.8040,114.9911,0.0007993,0.98117973,0.0000,01/09.2490/2017,2000,g 16.0,4.0
# From MPC106346
C/2017 E1 (Borisov),h,04/10.4317/2017,14.5636,142.6245,152.5947,1.002943,0.900483,2000,14.0,4.0
# From MPC109144
C/2017 E2 (Tsuchinshan),e,79.0302,11.5697,89.3936,21.55056,0.0098518,0.89088187,13.0477,12/27.0/2019,2000,g 11.5,4.0
# From MPC115882
C/2017 E3 (PANSTARRS),h,06/08.2151/2017,70.6232,220.7268,334.5113,1.007221,5.936320,2000,6.5,4.0
